{"spkid": "50840814", "covariance": {"labels": ["e", "q", "tp", "node", "peri", "i"], "elements": [{"title": "eccentricity", "value": ".07128095789662947", "units": null, "sigma": 5.48185866094536e-07, "name": "e", "label": "e"}, {"label": "q", "units": "au", "title": "perihelion distance", "value": ".9319996924850596", "name": "q", "sigma": 5.41201619037483e-07}, {"units": "TDB", "title": "time of perihelion passage", "value": "2459406.918832451855", "sigma": 0.000168076598692266, "name": "tp", "label": "tp"}, {"label": "node", "sigma": 1.24887028582081e-05, "name": "om", "units": "deg", "value": "187.7287800280044", "title": "longitude of the ascending node"}, {"label": "peri", "sigma": 0.000113654354459031, "name": "w", "title": "argument of perihelion", "value": "108.9388127222805", "units": "deg"}, {"label": "i", "sigma": 2.18643440564103e-05, "name": "i", "units": "deg", "title": "inclination", "value": "6.741041399952035"}], "data": [["3.00507743785816E-13", "-2.966774344477567E-13", "-8.688226958637139E-11", "4.929850975130563E-12", "-5.550564109361085E-11", "-9.527595789204461E-12"], ["-2.966774344477567E-13", "2.928991924487931E-13", "8.579134630430505E-11", "-4.866776943579147E-12", "5.480936514037738E-11", "9.400242362460964E-12"], ["-8.688226958637139E-11", "8.579134630430505E-11", "2.824974302796087E-8", "-1.731517965633126E-9", "1.891165396849258E-8", "3.323915605065374E-9"], ["4.929850975130563E-12", "-4.866776943579147E-12", "-1.731517965633126E-9", "1.559676990806163E-10", "-1.234270216320548E-9", "-2.031109893244161E-10"], ["-5.550564109361085E-11", "5.480936514037738E-11", "1.891165396849258E-8", "-1.234270216320548E-9", "1.291731228749908E-8", "2.271881298246293E-9"], ["-9.527595789204461E-12", "9.400242362460964E-12", "3.323915605065374E-9", "-2.031109893244161E-10", "2.271881298246293E-9", "4.780495410170833E-10"]], "epoch": "2459584.5"}, "elements": [{"name": "e", "sigma": "5.5746E-7", "units": null, "value": ".07089829422634408", "title": "eccentricity", "label": "e"}, {"label": "a", "name": "a", "sigma": "2.0326E-8", "units": "au", "value": "1.004562487133578", "title": "semi-major axis"}, {"label": "q", "units": "au", "value": ".9333407203520336", "title": "perihelion distance", "name": "q", "sigma": "5.416E-7"}, {"units": "deg", "title": "inclination; angle with respect to x-y ecliptic plane", "value": "6.749106747977496", "sigma": "2.2017E-5", "name": "i", "label": "i"}, {"label": "node", "title": "longitude of the ascending node", "value": "187.0125046694445", "units": "deg", "sigma": "1.5337E-5", "name": "om"}, {"label": "peri", "name": "w", "sigma": "7.7651E-5", "units": "deg", "value": "105.7220527501044", "title": "argument of perihelion"}, {"units": "deg", "title": "mean anomaly", "value": "320.2386878993905", "name": "ma", "sigma": "9.041E-5", "label": "M"}, {"title": "time of perihelion passage", "value": "2461241.118330430931", "units": "TDB", "sigma": "9.1231E-5", "name": "tp", "label": "tp"}, {"label": "period", "sigma": "1.1161E-5", "name": "per", "value": "367.7594672463317", "title": "sidereal orbital period", "units": "d"}, {"name": "n", "sigma": "2.971E-8", "units": "deg/d", "title": "mean motion", "value": ".9789007002200864", "label": "n"}, {"label": "Q", "units": "au", "title": "aphelion distance", "value": "1.075784253915123", "sigma": "2.1767E-8", "name": "ad"}], "epoch": "2461200.5"}